{"type": "FeatureCollection", "features": [ {"type": "Feature", "properties": {"norad_id": 30173, "name": "FENGYUN 1C DEB", "group": "fengyun-1c-debris", "lat": -17.378808004540993, "lon": -129.701214364759, "alt_km": 872.8073696425035, "timestamp": "2025-12-08T08:59:01.040222+00:00", "meta": {"OBJECT_NAME": "FENGYUN 1C DEB", "OBJECT_ID": "1999-025UE", "EPOCH": "2025-12-07T15:47:07.604160", "MEAN_MOTION": 14.11344667, "ECCENTRICITY": 0.00800374, "INCLINATION": 98.9762, "RA_OF_ASC_NODE": 52.4179, "ARG_OF_PERICENTER": 303.1281, "MEAN_ANOMALY": 216.378, "EPHEMERIS_TYPE": 0, "CLASSIFICATION_TYPE": "U", "NORAD_CAT_ID": 30173, "ELEMENT_SET_NO": 999, "REV_AT_EPOCH": 96477, "BSTAR": 0.0025634542, "MEAN_MOTION_DOT": 4.734e-05, "MEAN_MOTION_DDOT": 0}, "tle": {"line1": "1 30173U 99025UE  25341.65772690  .00004734  00000+0  25635-2 0  9996", "line2": "2 30173  98.9762  52.4179 0080037 303.1281 216.3780 14.11344667964778"}}, "geometry": {"type": "Point", "coordinates": [-129.701214364759, -17.378808004540993]}}, {"type": "Feature", "properties": {"norad_id": 30174, "name": "FENGYUN 1C DEB", "group": "fengyun-1c-debris", "lat": -19.196299658681983, "lon": -52.28650758736504, "alt_km": 641.9181935919605, "timestamp": "2025-12-08T08:59:01.040233+00:00", "meta": {"OBJECT_NAME": "FENGYUN 1C DEB", "OBJECT_ID": "1999-025UF", "EPOCH": "2025-12-07T22:53:33.205920", "MEAN_MOTION": 14.80550211, "ECCENTRICITY": 0.00177299, "INCLINATION": 98.7768, "RA_OF_ASC_NODE": 130.3374, "ARG_OF_PERICENTER": 61.9563, "MEAN_ANOMALY": 57.4815, "EPHEMERIS_TYPE": 0, "CLASSIFICATION_TYPE": "U", "NORAD_CAT_ID": 30174, "ELEMENT_SET_NO": 999, "REV_AT_EPOCH": 98297, "BSTAR": 0.0053893724, "MEAN_MOTION_DOT": 0.00041595, "MEAN_MOTION_DDOT": 0}, "tle": {"line1": "1 30174U 99025UF  25341.95385655  .00041595  00000+0  53894-2 0  9995", "line2": "2 30174  98.7768 130.3374 0017729  61.9563  57.4815 14.80550211982971"}}, "geometry": {"type": "Point", "coordinates": [-52.28650758736504, -19.196299658681983]}}, {"type": "Feature", "properties": {"norad_id": 30175, "name": "FENGYUN 1C DEB", "group": "fengyun-1c-debris", "lat": -3.0104986649232415, "lon": 38.95100620198149, "alt_km": 1025.3493038517408, "timestamp": "2025-12-08T08:59:01.040243+00:00", "meta": {"OBJECT_NAME": "FENGYUN 1C DEB", "OBJECT_ID": "1999-025UG", "EPOCH": "2025-12-07T17:59:33.097632", "MEAN_MOTION": 13.83859782, "ECCENTRICITY": 0.01461231, "INCLINATION": 99.3816, "RA_OF_ASC_NODE": 37.8295, "ARG_OF_PERICENTER": 225.9393, "MEAN_ANOMALY": 259.7094, "EPHEMERIS_TYPE": 0, "CLASSIFICATION_TYPE": "U", "NORAD_CAT_ID": 30175, "ELEMENT_SET_NO": 999, "REV_AT_EPOCH": 95271, "BSTAR": 0.00066710058, "MEAN_MOTION_DOT": 7.58e-06, "MEAN_MOTION_DDOT": 0}, "tle": {"line1": "1 30175U 99025UG  25341.74968863  .00000758  00000+0  66710-3 0  9999", "line2": "2 30175  99.3816  37.8295 0146123 225.9393 259.7094 13.83859782952712"}}, "geometry": {"type": "Point", "coordinates": [38.95100620198149, -3.0104986649232415]}}, {"type": "Feature", "properties": {"norad_id": 30177, "name": "FENGYUN 1C DEB", "group": "fengyun-1c-debris", "lat": 52.35677917079432, "lon": 117.85431489449437, "alt_km": 711.0938745277144, "timestamp": "2025-12-08T08:59:01.040253+00:00", "meta": {"OBJECT_NAME": "FENGYUN 1C DEB", "OBJECT_ID": "1999-025UJ", "EPOCH": "2025-12-06T19:39:04.307904", "MEAN_MOTION": 13.62794435, "ECCENTRICITY": 0.04513382, "INCLINATION": 98.6258, "RA_OF_ASC_NODE": 285.1217, "ARG_OF_PERICENTER": 153.9854, "MEAN_ANOMALY": 267.327, "EPHEMERIS_TYPE": 0, "CLASSIFICATION_TYPE": "U", "NORAD_CAT_ID": 30177, "ELEMENT_SET_NO": 999, "REV_AT_EPOCH": 93382, "BSTAR": 0.001025662, "MEAN_MOTION_DOT": 1.559e-05, "MEAN_MOTION_DDOT": 0}, "tle": {"line1": "1 30177U 99025UJ  25340.81879986  .00001559  00000+0  10257-2 0  9999", "line2": "2 30177  98.6258 285.1217 0451338 153.9854 267.3270 13.62794435933829"}}, "geometry": {"type": "Point", "coordinates": [117.85431489449437, 52.35677917079432]}}, {"type": "Feature", "properties": {"norad_id": 30178, "name": "FENGYUN 1C DEB", "group": "fengyun-1c-debris", "lat": 73.01481446664282, "lon": 169.3370302672711, "alt_km": 921.9959212116764, "timestamp": "2025-12-08T08:59:01.040263+00:00", "meta": {"OBJECT_NAME": "FENGYUN 1C DEB", "OBJECT_ID": "1999-025UK", "EPOCH": "2025-12-07T22:05:07.003680", "MEAN_MOTION": 13.58665822, "ECCENTRICITY": 0.02804264, "INCLINATION": 102.2596, "RA_OF_ASC_NODE": 214.1549, "ARG_OF_PERICENTER": 138.221, "MEAN_ANOMALY": 242.6369, "EPHEMERIS_TYPE": 0, "CLASSIFICATION_TYPE": "U", "NORAD_CAT_ID": 30178, "ELEMENT_SET_NO": 999, "REV_AT_EPOCH": 93106, "BSTAR": 0.0020098302, "MEAN_MOTION_DOT": 1.837e-05, "MEAN_MOTION_DDOT": 0}, "tle": {"line1": "1 30178U 99025UK  25341.92021995  .00001837  00000+0  20098-2 0  9995", "line2": "2 30178 102.2596 214.1549 0280426 138.2210 242.6369 13.58665822931068"}}, "geometry": {"type": "Point", "coordinates": [169.3370302672711, 73.01481446664282]}}, {"type": "Feature", "properties": {"norad_id": 30181, "name": "FENGYUN 1C DEB", "group": "fengyun-1c-debris", "lat": 25.69603306272597, "lon": 61.22190668833553, "alt_km": 765.4177324958519, "timestamp": "2025-12-08T08:59:01.040273+00:00", "meta": {"OBJECT_NAME": "FENGYUN 1C DEB", "OBJECT_ID": "1999-025UN", "EPOCH": "2025-12-07T16:46:45.751296", "MEAN_MOTION": 14.29189479, "ECCENTRICITY": 0.00402049, "INCLINATION": 98.8431, "RA_OF_ASC_NODE": 64.8332, "ARG_OF_PERICENTER": 14.9927, "MEAN_ANOMALY": 139.1479, "EPHEMERIS_TYPE": 0, "CLASSIFICATION_TYPE": "U", "NORAD_CAT_ID": 30181, "ELEMENT_SET_NO": 999, "REV_AT_EPOCH": 97439, "BSTAR": 0.0026555116, "MEAN_MOTION_DOT": 6.762e-05, "MEAN_MOTION_DDOT": 0}, "tle": {"line1": "1 30181U 99025UN  25341.69914064  .00006762  00000+0  26555-2 0  9997", "line2": "2 30181  98.8431  64.8332 0040204  14.9927 139.1479 14.29189479974396"}}, "geometry": {"type": "Point", "coordinates": [61.22190668833553, 25.69603306272597]}}, {"type": "Feature", "properties": {"norad_id": 30182, "name": "FENGYUN 1C DEB", "group": "fengyun-1c-debris", "lat": 42.7319457153086, "lon": 24.93454969527991, "alt_km": 848.2568048056892, "timestamp": "2025-12-08T08:59:01.040285+00:00", "meta": {"OBJECT_NAME": "FENGYUN 1C DEB", "OBJECT_ID": "1999-025UP", "EPOCH": "2025-12-07T21:35:52.611936", "MEAN_MOTION": 13.96453662, "ECCENTRICITY": 0.00753332, "INCLINATION": 99.0664, "RA_OF_ASC_NODE": 32.9497, "ARG_OF_PERICENTER": 35.979, "MEAN_ANOMALY": 143.7395, "EPHEMERIS_TYPE": 0, "CLASSIFICATION_TYPE": "U", "NORAD_CAT_ID": 30182, "ELEMENT_SET_NO": 999, "REV_AT_EPOCH": 96240, "BSTAR": 0.00038978986, "MEAN_MOTION_DOT": 5.08e-06, "MEAN_MOTION_DDOT": 0}, "tle": {"line1": "1 30182U 99025UP  25341.89991449  .00000508  00000+0  38979-3 0  9998", "line2": "2 30182  99.0664  32.9497 0075333  35.9790 143.7395 13.96453662962406"}}, "geometry": {"type": "Point", "coordinates": [24.93454969527991, 42.7319457153086]}}, {"type": "Feature", "properties": {"norad_id": 30183, "name": "FENGYUN 1C DEB", "group": "fengyun-1c-debris", "lat": -47.32555761383084, "lon": 34.3558874774426, "alt_km": 844.1148248456748, "timestamp": "2025-12-08T08:59:01.040296+00:00", "meta": {"OBJECT_NAME": "FENGYUN 1C DEB", "OBJECT_ID": "1999-025UQ", "EPOCH": "2025-12-07T16:47:05.232768", "MEAN_MOTION": 14.12647482, "ECCENTRICITY": 0.00257793, "INCLINATION": 98.7891, "RA_OF_ASC_NODE": 24.0333, "ARG_OF_PERICENTER": 267.8943, "MEAN_ANOMALY": 213.3343, "EPHEMERIS_TYPE": 0, "CLASSIFICATION_TYPE": "U", "NORAD_CAT_ID": 30183, "ELEMENT_SET_NO": 999, "REV_AT_EPOCH": 97072, "BSTAR": 0.00093956156, "MEAN_MOTION_DOT": 1.702e-05, "MEAN_MOTION_DDOT": 0}, "tle": {"line1": "1 30183U 99025UQ  25341.69936612  .00001702  00000+0  93956-3 0  9991", "line2": "2 30183  98.7891  24.0333 0025779 267.8943 213.3343 14.12647482970726"}}, "geometry": {"type": "Point", "coordinates": [34.3558874774426, -47.32555761383084]}}, {"type": "Feature", "properties": {"norad_id": 30191, "name": "FENGYUN 1C DEB", "group": "fengyun-1c-debris", "lat": -67.41893421951012, "lon": 74.9734282955789, "alt_km": 576.873409234784, "timestamp": "2025-12-08T08:59:01.040306+00:00", "meta": {"OBJECT_NAME": "FENGYUN 1C DEB", "OBJECT_ID": "1999-025UY", "EPOCH": "2025-12-07T22:43:33.984768", "MEAN_MOTION": 14.77874667, "ECCENTRICITY": 0.00972541, "INCLINATION": 98.7761, "RA_OF_ASC_NODE": 52.7018, "ARG_OF_PERICENTER": 278.7586, "MEAN_ANOMALY": 259.3594, "EPHEMERIS_TYPE": 0, "CLASSIFICATION_TYPE": "U", "NORAD_CAT_ID": 30191, "ELEMENT_SET_NO": 999, "REV_AT_EPOCH": 204, "BSTAR": 0.0014927483, "MEAN_MOTION_DOT": 0.00011569, "MEAN_MOTION_DDOT": 0}, "tle": {"line1": "1 30191U 99025UY  25341.94692112  .00011569  00000+0  14927-2 0  9994", "line2": "2 30191  98.7761  52.7018 0097254 278.7586 259.3594 14.77874667  2047"}}, "geometry": {"type": "Point", "coordinates": [74.9734282955789, -67.41893421951012]}}, {"type": "Feature", "properties": {"norad_id": 30193, "name": "FENGYUN 1C DEB", "group": "fengyun-1c-debris", "lat": 78.35319569630724, "lon": 118.81603984812666, "alt_km": 670.4677705536333, "timestamp": "2025-12-08T08:59:01.040316+00:00", "meta": {"OBJECT_NAME": "FENGYUN 1C DEB", "OBJECT_ID": "1999-025VA", "EPOCH": "2025-12-07T17:54:25.384896", "MEAN_MOTION": 14.49080797, "ECCENTRICITY": 0.01069812, "INCLINATION": 98.7562, "RA_OF_ASC_NODE": 249.7691, "ARG_OF_PERICENTER": 148.099, "MEAN_ANOMALY": 275.3162, "EPHEMERIS_TYPE": 0, "CLASSIFICATION_TYPE": "U", "NORAD_CAT_ID": 30193, "ELEMENT_SET_NO": 999, "REV_AT_EPOCH": 99094, "BSTAR": 0.001149724, "MEAN_MOTION_DOT": 4.648e-05, "MEAN_MOTION_DDOT": 0}, "tle": {"line1": "1 30193U 99025VA  25341.74612714  .00004648  00000+0  11497-2 0  9993", "line2": "2 30193  98.7562 249.7691 0106981 148.0990 275.3162 14.49080797990945"}}, "geometry": {"type": "Point", "coordinates": [118.81603984812666, 78.35319569630724]}}]}